NORAD_CAT_ID,OBJECT_NAME,OBJECT_TYPE,EPOCH,MEAN_MOTION,ECCENTRICITY,INCLINATION,RA_OF_ASC_NODE,ARG_OF_PERICENTER,MEAN_ANOMALY,BSTAR,MEAN_MOTION_DOT,MEAN_MOTION_DDOT,TLE_LINE0,TLE_LINE1,TLE_LINE2,SEMIMAJOR_AXIS,PERIOD,APOGEE,PERIGEE,DECAYED
53142.0,STARLINK-4101,PAYLOAD,2023-05-26 17:52:56,15.08808393,0.000129,53.2191,63.8496,108.2971,251.8161,0.00049147,7.536e-05,0.0,0 STARLINK-4101,1 53142U 22083L   23146.74509997  .00007536  00000-0  49147-3 0  9995,2 53142  53.2191  63.8496 0001290 108.2971 251.8161 15.08808393 48173,6917.977,95.44,540.734,538.95,0.0
53142.0,STARLINK-4101,PAYLOAD,2023-05-26 21:03:42,15.08836047,0.0001191,53.2186,63.2527,88.0173,272.0956,9.7646e-06,-1.32e-06,0.0,0 STARLINK-4101,1 53142U 22083L   23146.87757247 -.00000132  00000-0  97646-5 0  9997,2 53142  53.2186  63.2527 0001191  88.0173 272.0956 15.08836047 47572,6917.892,95.438,540.581,538.934,0.0
53142.0,STARLINK-4101,PAYLOAD,2023-05-27 00:14:28,15.0883686,0.000118,53.2186,62.658,87.9503,272.1624,1.2784e-05,-8.4e-07,0.0,0 STARLINK-4101,1 53142U 22083L   23147.01005193 -.00000084  00000-0  12784-4 0  9995,2 53142  53.2186  62.6580 0001180  87.9503 272.1624 15.08836860 48215,6917.89,95.438,540.571,538.939,0.0
53142.0,STARLINK-4101,PAYLOAD,2023-05-27 11:22:10,15.08837648,0.0001174,53.2187,60.5766,89.2584,270.8542,3.6459e-05,2.92e-06,0.0,0 STARLINK-4101,1 53142U 22083L   23147.47373128  .00000292  00000-0  36459-4 0  9996,2 53142  53.2187  60.5766 0001174  89.2584 270.8542 15.08837648 47663,6917.888,95.438,540.565,538.94,0.0
53142.0,STARLINK-4101,PAYLOAD,2023-05-28 01:40:38,15.0884693,0.0001137,53.2189,57.8998,90.9641,269.1482,4.7505e-05,4.68e-06,0.0,0 STARLINK-4101,1 53142U 22083L   23148.06988529  .00000468  00000-0  47505-4 0  9998,2 53142  53.2189  57.8998 0001137  90.9641 269.1482 15.08846930 48370,6917.859,95.437,540.511,538.938,0.0
53142.0,STARLINK-4101,PAYLOAD,2023-05-28 17:34:29,15.08840502,0.0001203,53.2193,54.9289,79.0628,281.0499,0.00011563,1.553e-05,0.0,0 STARLINK-4101,1 53142U 22083L   23148.73228710  .00001553  00000-0  11563-3 0  9991,2 53142  53.2193  54.9289 0001203  79.0628 281.0499 15.08840502 48474,6917.879,95.438,540.576,538.912,0.0
53142.0,STARLINK-4101,PAYLOAD,2023-05-29 03:06:47,15.08847992,0.0001199,53.2189,53.1431,88.3474,271.7656,0.00013581,1.875e-05,0.0,0 STARLINK-4101,1 53142U 22083L   23149.12972105  .00001875  00000-0  13581-3 0  9998,2 53142  53.2189  53.1431 0001199  88.3474 271.7656 15.08847992 48533,6917.856,95.437,540.55,538.892,0.0
53142.0,STARLINK-4101,PAYLOAD,2023-05-29 17:25:17,15.08835014,0.0001379,53.2189,50.4687,80.1536,279.9612,-2.636e-05,-7.07e-06,0.0,0 STARLINK-4101,1 53142U 22083L   23149.72589564 -.00000707  00000-0 -26360-4 0  9992,2 53142  53.2189  50.4687 0001379  80.1536 279.9612 15.08835014 48629,6917.896,95.438,540.715,538.807,0.0
53142.0,STARLINK-4101,PAYLOAD,2023-05-29 20:36:03,15.08833904,0.0001254,53.2191,49.8723,85.6126,274.501,-4.2838e-05,-9.69e-06,0.0,0 STARLINK-4101,1 53142U 22083L   23149.85837695 -.00000969  00000-0 -42838-4 0  9995,2 53142  53.2191  49.8723 0001254  85.6126 274.5010 15.08833904 48025,6917.899,95.438,540.632,538.897,0.0
53142.0,STARLINK-4101,PAYLOAD,2023-05-29 23:46:50,15.08834137,0.0001198,53.219,49.2786,81.0396,279.0732,-3.0311e-05,-7.7e-06,0.0,0 STARLINK-4101,1 53142U 22083L   23149.99085691 -.00000770  00000-0 -30311-4 0  9994,2 53142  53.2190  49.2786 0001198  81.0396 279.0732 15.08834137 48045,6917.898,95.438,540.592,538.935,0.0
53142.0,STARLINK-4101,PAYLOAD,2023-05-30 17:16:03,15.08845552,0.0001193,53.2191,46.006,82.3466,277.7661,2.2581e-05,7.2e-07,0.0,0 STARLINK-4101,1 53142U 22083L   23150.71948871  .00000072  00000-0  22581-4 0  9997,2 53142  53.2191  46.0060 0001193  82.3466 277.7661 15.08845552 48772,6917.863,95.437,540.554,538.903,0.0
53142.0,STARLINK-4101,PAYLOAD,2023-05-30 22:02:12,15.08850514,0.0001252,53.2189,45.1146,81.8509,278.2625,8.3829e-05,1.047e-05,0.0,0 STARLINK-4101,1 53142U 22083L   23150.91820364  .00001047  00000-0  83829-4 0  9990,2 53142  53.2189  45.1146 0001252  81.8509 278.2625 15.08850514 48187,6917.848,95.437,540.579,538.847,0.0
53142.0,STARLINK-4101,PAYLOAD,2023-05-30 23:37:35,15.08852788,0.0001286,53.219,44.8171,83.7987,276.3152,0.00010443,1.375e-05,0.0,0 STARLINK-4101,1 53142U 22083L   23150.98444168  .00001375  00000-0  10443-3 0  9996,2 53142  53.2190  44.8171 0001286  83.7987 276.3152 15.08852788 48810,6917.841,95.437,540.596,538.817,0.0
53142.0,STARLINK-4101,PAYLOAD,2023-05-31 02:48:21,15.08855618,0.0001236,53.2189,44.2219,84.0236,276.0897,0.00013067,1.793e-05,0.0,0 STARLINK-4101,1 53142U 22083L   23151.11691917  .00001793  00000-0  13067-3 0  9997,2 53142  53.2189  44.2219 0001236  84.0236 276.0897 15.08855618 48213,6917.833,95.437,540.553,538.843,0.0
53142.0,STARLINK-4101,PAYLOAD,2023-05-31 21:53:00,15.08835699,0.000129,53.2182,40.6519,82.5131,277.6008,8.5654e-05,1.075e-05,0.0,0 STARLINK-4101,1 53142U 22083L   23151.91181307  .00001075  00000-0  85654-4 0  9997,2 53142  53.2182  40.6519 0001290  82.5131 277.6008 15.08835699 48337,6917.894,95.438,540.651,538.866,0.0
53142.0,STARLINK-4101,PAYLOAD,2023-06-01 02:39:09,15.08842745,0.0001172,53.2187,39.7617,79.9945,280.1179,0.00015433,2.169e-05,0.0,0 STARLINK-4101,1 53142U 22083L   23152.11052786  .00002169  00000-0  15433-3 0  9990,2 53142  53.2187  39.7617 0001172  79.9945 280.1179 15.08842745 48981,6917.872,95.437,540.548,538.926,0.0
53142.0,STARLINK-4101,PAYLOAD,2023-06-02 16:48:25,15.08835067,9.84e-05,53.2182,32.6275,94.0639,266.0466,-5.003e-05,-1.084e-05,0.0,0 STARLINK-4101,1 53142U 22083L   23153.70029365 -.00001084  00000-0 -50030-4 0  9993,2 53142  53.2182  32.6275 0000984  94.0639 266.0466 15.08835067 49225,6917.895,95.438,540.441,539.08,0.0
53142.0,STARLINK-4101,PAYLOAD,2023-06-02 21:34:34,15.08833425,0.0001029,53.218,31.7357,94.5337,265.5773,-7.4193e-05,-1.468e-05,0.0,0 STARLINK-4101,1 53142U 22083L   23153.89901532 -.00001468  00000-0 -74193-4 0  9990,2 53142  53.2180  31.7357 0001029  94.5337 265.5773 15.08833425 48630,6917.9,95.438,540.477,539.054,0.0
53142.0,STARLINK-4101,PAYLOAD,2023-06-02 23:09:58,15.0883567,9.97e-05,53.2186,31.4376,91.675,268.4356,-1.074e-05,-4.59e-06,0.0,0 STARLINK-4101,1 53142U 22083L   23153.96525893 -.00000459  00000-0 -10740-4 0  9997,2 53142  53.2186  31.4376 0000997  91.6750 268.4356 15.08835670 48648,6917.894,95.438,540.448,539.069,0.0
53142.0,STARLINK-4101,PAYLOAD,2023-06-03 21:25:22,15.08838842,9.6e-05,53.2184,27.2742,88.999,271.1112,0.00014341,1.995e-05,0.0,0 STARLINK-4101,1 53142U 22083L   23154.89261596  .00001995  00000-0  14341-3 0  9991,2 53142  53.2184  27.2742 0000960  88.9990 271.1112 15.08838842 48781,6917.884,95.438,540.413,539.085,0.0
53142.0,STARLINK-4101,PAYLOAD,2023-06-04 00:36:07,15.08844084,0.0001007,53.2183,26.6797,93.6749,266.4359,0.0001853,2.663e-05,0.0,0 STARLINK-4101,1 53142U 22083L   23155.02509211  .00002663  00000-0  18530-3 0  9993,2 53142  53.2183  26.6797 0001007  93.6749 266.4359 15.08844084 49428,6917.868,95.437,540.43,539.036,0.0
53142.0,STARLINK-4101,PAYLOAD,2023-06-04 19:40:46,15.08839078,0.0001079,53.2182,23.1112,91.7225,268.3891,8.0939e-05,1.001e-05,0.0,0 STARLINK-4101,1 53142U 22083L   23155.81998054  .00001001  00000-0  80939-4 0  9995,2 53142  53.2182  23.1112 0001079  91.7225 268.3891 15.08839078 49549,6917.883,95.438,540.495,539.002,0.0
53142.0,STARLINK-4101,PAYLOAD,2023-06-04 21:16:09,15.08836462,0.0001131,53.2184,22.8141,88.3669,271.7452,0.00011991,1.621e-05,0.0,0 STARLINK-4101,1 53142U 22083L   23155.88622165  .00001621  00000-0  11991-3 0  9998,2 53142  53.2184  22.8141 0001131  88.3669 271.7452 15.08836462 48939,6917.891,95.438,540.539,538.974,0.0
53142.0,STARLINK-4101,PAYLOAD,2023-06-05 00:26:55,15.08841449,0.000117,53.2184,22.2191,84.9351,275.1775,0.00015343,2.155e-05,0.0,0 STARLINK-4101,1 53142U 22083L   23156.01869805  .00002155  00000-0  15343-3 0  9996,2 53142  53.2184  22.2191 0001170  84.9351 275.1775 15.08841449 48950,6917.876,95.437,540.55,538.932,0.0
53142.0,STARLINK-4101,PAYLOAD,2023-06-05 19:31:32,15.08849332,0.0001201,53.2191,18.6485,93.6411,266.4719,7.5879e-05,9.2e-06,0.0,0 STARLINK-4101,1 53142U 22083L   23156.81357441  .00000920  00000-0  75879-4 0  9991,2 53142  53.2191  18.6485 0001201  93.6411 266.4719 15.08849332 49076,6917.852,95.437,540.548,538.886,0.0
53142.0,STARLINK-4101,PAYLOAD,2023-06-06 13:00:47,15.08838709,0.0001289,53.2197,15.3805,98.2394,261.8744,7.6468e-05,9.29e-06,0.0,0 STARLINK-4101,1 53142U 22083L   23157.54222028  .00000929  00000-0  76468-4 0  9998,2 53142  53.2197  15.3805 0001289  98.2394 261.8744 15.08838709 49184,6917.884,95.438,540.641,538.858,0.0
53142.0,STARLINK-4101,PAYLOAD,2023-06-06 19:22:20,15.0883897,0.0001232,53.2195,14.1907,98.8313,261.2818,3.9324e-05,3.38e-06,0.0,0 STARLINK-4101,1 53142U 22083L   23157.80718126  .00000338  00000-0  39324-4 0  9990,2 53142  53.2195  14.1907 0001232  98.8313 261.2818 15.08838970 49228,6917.884,95.438,540.601,538.896,0.0
53142.0,STARLINK-4101,PAYLOAD,2023-06-07 12:51:35,15.08836366,0.0001201,53.2187,10.9176,98.1595,261.9533,1.6552e-05,-2.4e-07,0.0,0 STARLINK-4101,1 53142U 22083L   23158.53582398 -.00000024  00000-0  16552-4 0  9992,2 53142  53.2187  10.9176 0001201  98.1595 261.9533 15.08836366 49332,6917.891,95.438,540.587,538.926,0.0
53142.0,STARLINK-4101,PAYLOAD,2023-06-07 17:37:44,15.08840605,0.0001109,53.2184,10.0255,95.7586,264.3532,-7.5463e-06,-4.08e-06,0.0,0 STARLINK-4101,1 53142U 22083L   23158.73454194 -.00000408  00000-0 -75463-5 0  9990,2 53142  53.2184  10.0255 0001109  95.7586 264.3532 15.08840605 49986,6917.879,95.438,540.511,538.976,0.0
53142.0,STARLINK-4101,PAYLOAD,2023-06-07 20:48:30,15.08842635,0.0001163,53.2189,9.4309,98.838,261.2744,1.4384e-05,-5.9e-07,0.0,0 STARLINK-4101,1 53142U 22083L   23158.86701992 -.00000059  00000-0  14384-4 0  9990,2 53142  53.2189   9.4309 0001163  98.8380 261.2744 15.08842635 49389,6917.872,95.437,540.542,538.933,0.0
